STARLINK-1368           
1 45540U 20025K   26068.79613205  .00000438  00000+0  26925-4 0  9994
2 45540  53.1591 100.8341 0001432  90.6838 269.4327 15.30194629325187
EOSSAT-1                
1 55053U 23001AW  26068.73619225  .00007695  00000+0  24844-3 0  9992
2 55053  97.3357 130.2294 0011263 110.3168 249.9285 15.32339828176689
